{
  "type": "FeatureCollection",
  "features": [
    {
      "type": "Feature",
      "properties": {
        "norad_id": 24946,
        "name": "IRIDIUM 33",
        "group": "iridium-33-debris",
        "lat": 38.374515429533346,
        "lon": -118.83005107891637,
        "alt_km": 766.8952727097412,
        "timestamp": "2025-12-22T16:55:17.848674+00:00",
        "meta_object_name": "IRIDIUM 33",
        "meta_object_id": "1997-051C",
        "meta_epoch": "2025-12-22T04:33:00.643392",
        "meta_mean_motion": 14.35043647,
        "meta_eccentricity": 0.00081627,
        "meta_inclination": 86.3861,
        "meta_ra_of_asc_node": 64.2549,
        "meta_arg_of_pericenter": 169.1562,
        "meta_mean_anomaly": 190.9812,
        "meta_ephemeris_type": 0,
        "meta_classification_type": "U",
        "meta_norad_cat_id": 24946,
        "meta_element_set_no": 999,
        "meta_rev_at_epoch": 47970,
        "meta_bstar": 0.00010632795,
        "meta_mean_motion_dot": 3.23e-06,
        "meta_mean_motion_ddot": 0,
        "tle_line1": "1 24946U 97051C   25356.18959078  .00000323  00000+0  10633-3 0  9998",
        "tle_line2": "2 24946  86.3861  64.2549 0008162 169.1562 190.9812 14.35043647479700"
      },
      "geometry": {
        "type": "Point",
        "coordinates": [
          -118.83005107891637,
          38.374515429533346
        ]
      }
    },
    {
      "type": "Feature",
      "properties": {
        "norad_id": 33773,
        "name": "IRIDIUM 33 DEB",
        "group": "iridium-33-debris",
        "lat": 32.871137877471284,
        "lon": 58.69807352808346,
        "alt_km": 744.8502547910321,
        "timestamp": "2025-12-22T16:55:17.848720+00:00",
        "meta_object_name": "IRIDIUM 33 DEB",
        "meta_object_id": "1997-051L",
        "meta_epoch": "2025-12-22T03:27:28.205280",
        "meta_mean_motion": 14.43275908,
        "meta_eccentricity": 0.00131568,
        "meta_inclination": 86.4,
        "meta_ra_of_asc_node": 56.6042,
        "meta_arg_of_pericenter": 119.239,
        "meta_mean_anomaly": 241.0128,
        "meta_ephemeris_type": 0,
        "meta_classification_type": "U",
        "meta_norad_cat_id": 33773,
        "meta_element_set_no": 999,
        "meta_rev_at_epoch": 88483,
        "meta_bstar": 0.00026609995,
        "meta_mean_motion_dot": 9.16e-06,
        "meta_mean_motion_ddot": 0,
        "tle_line1": "1 33773U 97051L   25356.14407645  .00000916  00000+0  26610-3 0  9990",
        "tle_line2": "2 33773  86.4000  56.6042 0013156 119.2390 241.0128 14.43275908884839"
      },
      "geometry": {
        "type": "Point",
        "coordinates": [
          58.69807352808346,
          32.871137877471284
        ]
      }
    },
    {
      "type": "Feature",
      "properties": {
        "norad_id": 33775,
        "name": "IRIDIUM 33 DEB",
        "group": "iridium-33-debris",
        "lat": 52.257525693475166,
        "lon": 50.01254771902023,
        "alt_km": 745.4953906385645,
        "timestamp": "2025-12-22T16:55:17.848737+00:00",
        "meta_object_name": "IRIDIUM 33 DEB",
        "meta_object_id": "1997-051N",
        "meta_epoch": "2025-12-22T05:20:09.260160",
        "meta_mean_motion": 14.41487811,
        "meta_eccentricity": 0.00151311,
        "meta_inclination": 86.3626,
        "meta_ra_of_asc_node": 45.5049,
        "meta_arg_of_pericenter": 126.3142,
        "meta_mean_anomaly": 302.8171,
        "meta_ephemeris_type": 0,
        "meta_classification_type": "U",
        "meta_norad_cat_id": 33775,
        "meta_element_set_no": 999,
        "meta_rev_at_epoch": 88277,
        "meta_bstar": 0.00028923082,
        "meta_mean_motion_dot": 9.59e-06,
        "meta_mean_motion_ddot": 0,
        "tle_line1": "1 33775U 97051N   25356.22232940  .00000959  00000+0  28923-3 0  9991",
        "tle_line2": "2 33775  86.3626  45.5049 0015131 126.3142 302.8171 14.41487811882778"
      },
      "geometry": {
        "type": "Point",
        "coordinates": [
          50.01254771902023,
          52.257525693475166
        ]
      }
    },
    {
      "type": "Feature",
      "properties": {
        "norad_id": 33776,
        "name": "IRIDIUM 33 DEB",
        "group": "iridium-33-debris",
        "lat": 13.412655758533353,
        "lon": -104.26830998313176,
        "alt_km": 754.5509260011986,
        "timestamp": "2025-12-22T16:55:17.848751+00:00",
        "meta_object_name": "IRIDIUM 33 DEB",
        "meta_object_id": "1997-051P",
        "meta_epoch": "2025-12-22T04:33:30.007296",
        "meta_mean_motion": 14.38251333,
        "meta_eccentricity": 0.00153788,
        "meta_inclination": 86.4034,
        "meta_ra_of_asc_node": 76.8074,
        "meta_arg_of_pericenter": 160.3153,
        "meta_mean_anomaly": 220.5711,
        "meta_ephemeris_type": 0,
        "meta_classification_type": "U",
        "meta_norad_cat_id": 33776,
        "meta_element_set_no": 999,
        "meta_rev_at_epoch": 88218,
        "meta_bstar": 0.0002640439,
        "meta_mean_motion_dot": 8.23e-06,
        "meta_mean_motion_ddot": 0,
        "tle_line1": "1 33776U 97051P   25356.18993064  .00000823  00000+0  26404-3 0  9990",
        "tle_line2": "2 33776  86.4034  76.8074 0015378 160.3153 220.5711 14.38251333882186"
      },
      "geometry": {
        "type": "Point",
        "coordinates": [
          -104.26830998313176,
          13.412655758533353
        ]
      }
    },
    {
      "type": "Feature",
      "properties": {
        "norad_id": 33777,
        "name": "IRIDIUM 33 DEB",
        "group": "iridium-33-debris",
        "lat": -37.62011733971734,
        "lon": -146.3333298975685,
        "alt_km": 709.5008279442072,
        "timestamp": "2025-12-22T16:55:17.848764+00:00",
        "meta_object_name": "IRIDIUM 33 DEB",
        "meta_object_id": "1997-051Q",
        "meta_epoch": "2025-12-22T04:22:35.014080",
        "meta_mean_motion": 14.55675322,
        "meta_eccentricity": 0.00059714,
        "meta_inclination": 86.3773,
        "meta_ra_of_asc_node": 31.0955,
        "meta_arg_of_pericenter": 208.3162,
        "meta_mean_anomaly": 151.7722,
        "meta_ephemeris_type": 0,
        "meta_classification_type": "U",
        "meta_norad_cat_id": 33777,
        "meta_element_set_no": 999,
        "meta_rev_at_epoch": 88671,
        "meta_bstar": 0.00077164381,
        "meta_mean_motion_dot": 3.391e-05,
        "meta_mean_motion_ddot": 0,
        "tle_line1": "1 33777U 97051Q   25356.18234970  .00003391  00000+0  77164-3 0  9997",
        "tle_line2": "2 33777  86.3773  31.0955 0005971 208.3162 151.7722 14.55675322886715"
      },
      "geometry": {
        "type": "Point",
        "coordinates": [
          -146.3333298975685,
          -37.62011733971734
        ]
      }
    },
    {
      "type": "Feature",
      "properties": {
        "norad_id": 33850,
        "name": "IRIDIUM 33 DEB",
        "group": "iridium-33-debris",
        "lat": 57.46454072567411,
        "lon": 31.651520079823598,
        "alt_km": 743.2093996376952,
        "timestamp": "2025-12-22T16:55:17.848775+00:00",
        "meta_object_name": "IRIDIUM 33 DEB",
        "meta_object_id": "1997-051T",
        "meta_epoch": "2025-12-21T12:54:25.325568",
        "meta_mean_motion": 14.4216572,
        "meta_eccentricity": 0.00130293,
        "meta_inclination": 86.3408,
        "meta_ra_of_asc_node": 26.3962,
        "meta_arg_of_pericenter": 134.7554,
        "meta_mean_anomaly": 346.6938,
        "meta_ephemeris_type": 0,
        "meta_classification_type": "U",
        "meta_norad_cat_id": 33850,
        "meta_element_set_no": 999,
        "meta_rev_at_epoch": 88279,
        "meta_bstar": 0.00030357281,
        "meta_mean_motion_dot": 1.019e-05,
        "meta_mean_motion_ddot": 0,
        "tle_line1": "1 33850U 97051T   25355.53779312  .00001019  00000+0  30357-3 0  9999",
        "tle_line2": "2 33850  86.3408  26.3962 0013029 134.7554 346.6938 14.42165720882797"
      },
      "geometry": {
        "type": "Point",
        "coordinates": [
          31.651520079823598,
          57.46454072567411
        ]
      }
    },
    {
      "type": "Feature",
      "properties": {
        "norad_id": 33853,
        "name": "IRIDIUM 33 DEB",
        "group": "iridium-33-debris",
        "lat": -20.208393214161948,
        "lon": -16.03442739802274,
        "alt_km": 1006.7192524897937,
        "timestamp": "2025-12-22T16:55:17.848787+00:00",
        "meta_object_name": "IRIDIUM 33 DEB",
        "meta_object_id": "1997-051W",
        "meta_epoch": "2025-12-20T22:14:35.888928",
        "meta_mean_motion": 13.9910315,
        "meta_eccentricity": 0.0207332,
        "meta_inclination": 85.9999,
        "meta_ra_of_asc_node": 346.2208,
        "meta_arg_of_pericenter": 210.5493,
        "meta_mean_anomaly": 176.3282,
        "meta_ephemeris_type": 0,
        "meta_classification_type": "U",
        "meta_norad_cat_id": 33853,
        "meta_element_set_no": 999,
        "meta_rev_at_epoch": 85460,
        "meta_bstar": 0.0010168,
        "meta_mean_motion_dot": 1.786e-05,
        "meta_mean_motion_ddot": 0,
        "tle_line1": "1 33853U 97051W   25354.92680427  .00001786  00000+0  10168-2 0  9990",
        "tle_line2": "2 33853  85.9999 346.2208 0207332 210.5493 176.3282 13.99103150854603"
      },
      "geometry": {
        "type": "Point",
        "coordinates": [
          -16.03442739802274,
          -20.208393214161948
        ]
      }
    }
  ]
}